[
    {
        "Altitude(m)": 605459.0538514236,
        "Argument of Periapsis(deg)": 0.0,
        "Eccentricity": 0.0,
        "Inclination(deg)": 60.0,
        "Latitude(deg)": 27.98829534853783,
        "Longitude(deg)": 42.79853735881807,
        "Mean Anomaly(deg)": 32.72730000000001,
        "RAAN(deg)": 125.00000000000001,
        "Satellite Name": "Test1 552",
        "Satellite Number": 552,
        "Semi-Major Axis(m)": 6980739.136638005,
        "Time(s)": 0
    },
    {
        "Altitude(m)": 605535.8453445699,
        "Argument of Periapsis(deg)": 0.00010418945913296404,
        "Eccentricity": 0.0,
        "Inclination(deg)": 60.0,
        "Latitude(deg)": 28.501425409694217,
        "Longitude(deg)": 43.15548168017562,
        "Mean Anomaly(deg)": 33.34740614546182,
        "RAAN(deg)": 124.99957995086027,
        "Satellite Name": "Test1 552",
        "Satellite Number": 552,
        "Semi-Major Axis(m)": 6980739.136638005,
        "Time(s)": 10
    },
    {
        "Altitude(m)": 605614.3274515974,
        "Argument of Periapsis(deg)": 0.0002083789182659281,
        "Eccentricity": 0.0,
        "Inclination(deg)": 60.0,
        "Latitude(deg)": 29.013337949162725,
        "Longitude(deg)": 43.51629084985092,
        "Mean Anomaly(deg)": 33.967512290923665,
        "RAAN(deg)": 124.99915990172053,
        "Satellite Name": "Test1 552",
        "Satellite Number": 552,
        "Semi-Major Axis(m)": 6980739.136638005,
        "Time(s)": 20
    },
    {
        "Altitude(m)": 605694.4424801756,
        "Argument of Periapsis(deg)": 0.00031256837739889213,
        "Eccentricity": 0.0,
        "Inclination(deg)": 60.0,
        "Latitude(deg)": 29.523995694047446,
        "Longitude(deg)": 43.881076624297485,
        "Mean Anomaly(deg)": 34.5876184363855,
        "RAAN(deg)": 124.99873985258078,
        "Satellite Name": "Test1 552",
        "Satellite Number": 552,
        "Semi-Major Axis(m)": 6980739.136638005,
        "Time(s)": 30
    },
    {
        "Altitude(m)": 605776.132128607,
        "Argument of Periapsis(deg)": 0.0004167578365318562,
        "Eccentricity": 0.0,
        "Inclination(deg)": 60.0,
        "Latitude(deg)": 30.03336037497716,
        "Longitude(deg)": 44.24995376630193,
        "Mean Anomaly(deg)": 35.20772458184732,
        "RAAN(deg)": 124.99831980344105,
        "Satellite Name": "Test1 552",
        "Satellite Number": 552,
        "Semi-Major Axis(m)": 6980739.136638005,
        "Time(s)": 40
    },
    {
        "Altitude(m)": 605859.3375162004,
        "Argument of Periapsis(deg)": 0.0005209472956648203,
        "Eccentricity": 0.0,
        "Inclination(deg)": 60.0,
        "Latitude(deg)": 30.54139268736874,
        "Longitude(deg)": 44.62303910380035,
        "Mean Anomaly(deg)": 35.82783072730915,
        "RAAN(deg)": 124.99789975430129,
        "Satellite Name": "Test1 552",
        "Satellite Number": 552,
        "Semi-Major Axis(m)": 6980739.136638005,
        "Time(s)": 50
    },
    {
        "Altitude(m)": 605943.9992138355,
        "Argument of Periapsis(deg)": 0.0006251367547977843,
        "Eccentricity": 0.0,
        "Inclination(deg)": 60.0,
        "Latitude(deg)": 31.048052251335577,
        "Longitude(deg)": 45.000452101743214,
        "Mean Anomaly(deg)": 36.447936872770974,
        "RAAN(deg)": 124.99747970516155,
        "Satellite Name": "Test1 552",
        "Satellite Number": 552,
        "Semi-Major Axis(m)": 6980739.136638005,
        "Time(s)": 60
    },
    {
        "Altitude(m)": 606030.0572747776,
        "Argument of Periapsis(deg)": 0.0007293262139307483,
        "Eccentricity": 0.0,
        "Inclination(deg)": 60.0,
        "Latitude(deg)": 31.553297570196936,
        "Longitude(deg)": 45.38231543397199,
        "Mean Anomaly(deg)": 37.06804301823281,
        "RAAN(deg)": 124.9970596560218,
        "Satellite Name": "Test1 552",
        "Satellite Number": 552,
        "Semi-Major Axis(m)": 6980739.136638005,
        "Time(s)": 70
    },
    {
        "Altitude(m)": 606117.451265677,
        "Argument of Periapsis(deg)": 0.0008335156730637124,
        "Eccentricity": 0.0,
        "Inclination(deg)": 60.0,
        "Latitude(deg)": 32.05708598754681,
        "Longitude(deg)": 45.768754042048776,
        "Mean Anomaly(deg)": 37.68814916369463,
        "RAAN(deg)": 124.99663960688207,
        "Satellite Name": "Test1 552",
        "Satellite Number": 552,
        "Semi-Major Axis(m)": 6980739.136638005,
        "Time(s)": 80
    },
    {
        "Altitude(m)": 606206.1202977574,
        "Argument of Periapsis(deg)": 0.0009377051321966765,
        "Eccentricity": 0.0,
        "Inclination(deg)": 60.0,
        "Latitude(deg)": 32.55937364284683,
        "Longitude(deg)": 46.15989570657815,
        "Mean Anomaly(deg)": 38.308255309156486,
        "RAAN(deg)": 124.99621955774232,
        "Satellite Name": "Test1 552",
        "Satellite Number": 552,
        "Semi-Major Axis(m)": 6980739.136638005,
        "Time(s)": 90
    },
    {
        "Altitude(m)": 606296.0030581828,
        "Argument of Periapsis(deg)": 0.0010418945913296407,
        "Eccentricity": 0.0,
        "Inclination(deg)": 60.0,
        "Latitude(deg)": 33.06011542550229,
        "Longitude(deg)": 46.55587161791594,
        "Mean Anomaly(deg)": 38.92836145461831,
        "RAAN(deg)": 124.99579950860259,
        "Satellite Name": "Test1 552",
        "Satellite Number": 552,
        "Semi-Major Axis(m)": 6980739.136638005,
        "Time(s)": 100
    },
    {
        "Altitude(m)": 606387.0378415693,
        "Argument of Periapsis(deg)": 0.0011460840504626045,
        "Eccentricity": 0.0,
        "Inclination(deg)": 60.0,
        "Latitude(deg)": 33.55926492738252,
        "Longitude(deg)": 46.95681543312535,
        "Mean Anomaly(deg)": 39.548467600080116,
        "RAAN(deg)": 124.99537945946284,
        "Satellite Name": "Test1 552",
        "Satellite Number": 552,
        "Semi-Major Axis(m)": 6980739.136638005,
        "Time(s)": 110
    },
    {
        "Altitude(m)": 606479.1625816419,
        "Argument of Periapsis(deg)": 0.0012502735095955685,
        "Eccentricity": 0.0,
        "Inclination(deg)": 60.0,
        "Latitude(deg)": 34.056774393753926,
        "Longitude(deg)": 47.36286384464034,
        "Mean Anomaly(deg)": 40.16857374554196,
        "RAAN(deg)": 124.9949594103231,
        "Satellite Name": "Test1 552",
        "Satellite Number": 552,
        "Semi-Major Axis(m)": 6980739.136638005,
        "Time(s)": 120
    },
    {
        "Altitude(m)": 606572.3148830216,
        "Argument of Periapsis(deg)": 0.0013544629687285324,
        "Eccentricity": 0.0,
        "Inclination(deg)": 60.0,
        "Latitude(deg)": 34.55259467258943,
        "Longitude(deg)": 47.77415714743313,
        "Mean Anomaly(deg)": 40.788679891003795,
        "RAAN(deg)": 124.99453936118336,
        "Satellite Name": "Test1 552",
        "Satellite Number": 552,
        "Semi-Major Axis(m)": 6980739.136638005,
        "Time(s)": 130
    },
    {
        "Altitude(m)": 606666.4320530915,
        "Argument of Periapsis(deg)": 0.0014586524278614966,
        "Eccentricity": 0.0,
        "Inclination(deg)": 60.0,
        "Latitude(deg)": 35.04667516222262,
        "Longitude(deg)": 48.19083829145211,
        "Mean Anomaly(deg)": 41.40878603646562,
        "RAAN(deg)": 124.99411931204362,
        "Satellite Name": "Test1 552",
        "Satellite Number": 552,
        "Semi-Major Axis(m)": 6980739.136638005,
        "Time(s)": 140
    },
    {
        "Altitude(m)": 606761.451133994,
        "Argument of Periapsis(deg)": 0.0015628418869944607,
        "Eccentricity": 0.0,
        "Inclination(deg)": 60.0,
        "Latitude(deg)": 35.538963757321056,
        "Longitude(deg)": 48.613053444675685,
        "Mean Anomaly(deg)": 42.02889218192745,
        "RAAN(deg)": 124.99369926290387,
        "Satellite Name": "Test1 552",
        "Satellite Number": 552,
        "Semi-Major Axis(m)": 6980739.136638005,
        "Time(s)": 150
    },
    {
        "Altitude(m)": 606857.3089346666,
        "Argument of Periapsis(deg)": 0.0016670313461274247,
        "Eccentricity": 0.0,
        "Inclination(deg)": 60.0,
        "Latitude(deg)": 36.02940679315355,
        "Longitude(deg)": 49.04095255346515,
        "Mean Anomaly(deg)": 42.64899832738928,
        "RAAN(deg)": 124.99327921376414,
        "Satellite Name": "Test1 552",
        "Satellite Number": 552,
        "Semi-Major Axis(m)": 6980739.136638005,
        "Time(s)": 160
    },
    {
        "Altitude(m)": 606953.9420629638,
        "Argument of Periapsis(deg)": 0.0017712208052603888,
        "Eccentricity": 0.0,
        "Inclination(deg)": 60.0,
        "Latitude(deg)": 36.51794898812819,
        "Longitude(deg)": 49.474688386850595,
        "Mean Anomaly(deg)": 43.269104472851105,
        "RAAN(deg)": 124.99285916462439,
        "Satellite Name": "Test1 552",
        "Satellite Number": 552,
        "Semi-Major Axis(m)": 6980739.136638005,
        "Time(s)": 170
    },
    {
        "Altitude(m)": 607051.2869578192,
        "Argument of Periapsis(deg)": 0.001875410264393353,
        "Eccentricity": 0.0,
        "Inclination(deg)": 60.0,
        "Latitude(deg)": 37.004533384590836,
        "Longitude(deg)": 49.914417089959784,
        "Mean Anomaly(deg)": 43.88921061831296,
        "RAAN(deg)": 124.99243911548466,
        "Satellite Name": "Test1 552",
        "Satellite Number": 552,
        "Semi-Major Axis(m)": 6980739.136638005,
        "Time(s)": 180
    },
    {
        "Altitude(m)": 607149.2799214047,
        "Argument of Periapsis(deg)": 0.0019795997235263173,
        "Eccentricity": 0.0,
        "Inclination(deg)": 60.0,
        "Latitude(deg)": 37.489101287872025,
        "Longitude(deg)": 50.36029873312035,
        "Mean Anomaly(deg)": 44.509316763774784,
        "RAAN(deg)": 124.99201906634491,
        "Satellite Name": "Test1 552",
        "Satellite Number": 552,
        "Semi-Major Axis(m)": 6980739.136638005,
        "Time(s)": 190
    }
]